[{"OBJECT_NAME":"YAOGAN-4","OBJECT_ID":"2008-061A","EPOCH":"2026-03-09T17:16:46.672032","MEAN_MOTION":14.82978423,"ECCENTRICITY":0.00153383,"INCLINATION":97.9248,"RA_OF_ASC_NODE":3.0166,"ARG_OF_PERICENTER":39.2204,"MEAN_ANOMALY":321.0118,"EPHEMERIS_TYPE":0,"CLASSIFICATION_TYPE":"U","NORAD_CAT_ID":33446,"ELEMENT_SET_NO":999,"REV_AT_EPOCH":93092,"BSTAR":0.00022773961,"MEAN_MOTION_DOT":1.799e-5,"MEAN_MOTION_DDOT":0},{"OBJECT_NAME":"SL-14 R\/B","OBJECT_ID":"1985-009B","EPOCH":"2026-03-09T12:31:38.807616","MEAN_MOTION":14.86118469,"ECCENTRICITY":0.00177921,"INCLINATION":82.5198,"RA_OF_ASC_NODE":79.0201,"ARG_OF_PERICENTER":243.1549,"MEAN_ANOMALY":116.7849,"EPHEMERIS_TYPE":0,"CLASSIFICATION_TYPE":"U","NORAD_CAT_ID":15495,"ELEMENT_SET_NO":999,"REV_AT_EPOCH":20162,"BSTAR":6.1904017e-5,"MEAN_MOTION_DOT":5.68e-6,"MEAN_MOTION_DDOT":0}]
